PELICAN-1               
1 58296U 23174AS  26199.23901054  .00005303  00000+0  41639-4 0  9995
2 58296  97.4011 301.5070 0006336 192.5328 167.5779 15.72007488151043
PELICAN-2               
1 62631U 25009Y   26201.23500227 -.00000010  00000+0  17109-5 0  9990
2 62631  97.2049 291.7151 0001578 113.6557 246.4856 15.40653359 84644
PELICAN-3               
1 65315U 25188A   26201.09988075  .00004926  00000+0  12021-3 0  9990
2 65315  97.1977 276.7657 0002088 114.3182 245.8284 15.41324301 50383
PELICAN-4               
1 65316U 25188B   26201.12216239  .00004679  00000+0  11789-3 0  9996
2 65316  97.1983 276.9324 0001503  72.2910 287.8501 15.40374706 50387
PELICAN-5               
1 66667U 25276B   26200.74448735  .00009682  00000+0  30701-3 0  9993
2 66667  97.4117 275.7240 0002024  39.3452 320.7937 15.32907150 35500
PELICAN-6               
1 66703U 25276AP  26201.14005100  .00006596  00000+0  21853-3 0  9993
2 66703  97.3722 276.0915 0002511  40.2195 319.9232 15.31624190 35575
PELICAN-7               
1 69017U 26100AP  26200.98839865  .00001750  00000+0  75529-4 0  9992
2 69017  97.3811  98.3610 0003289  80.0808 280.0801 15.23842166 11804
PELICAN-9               
1 69019U 26100AR  26200.70553998  .00001082  00000+0  49018-4 0  9996
2 69019  97.3534  97.8912 0002204 105.4648 254.6832 15.22942118 11759
