{"fetched_at":"2026-07-20T18:28:56.744Z","source":"https://celestrak.org/NORAD/elements/gp.php?GROUP=planet&FORMAT=JSON","constellation":"pelican","records":[{"OBJECT_NAME":"PELICAN-1","OBJECT_ID":"2023-174AS","EPOCH":"2026-07-18T05:44:10.510656","CLASSIFICATION_TYPE":"U","MEAN_MOTION":15.72007488,"ECCENTRICITY":0.00063369,"INCLINATION":97.4011,"RA_OF_ASC_NODE":301.507,"ARG_OF_PERICENTER":192.5328,"MEAN_ANOMALY":167.5779,"EPHEMERIS_TYPE":0,"NORAD_CAT_ID":58296,"ELEMENT_SET_NO":999,"REV_AT_EPOCH":15104,"BSTAR":0.000041639243,"MEAN_MOTION_DOT":0.00005303,"MEAN_MOTION_DDOT":0},{"OBJECT_NAME":"PELICAN-2","OBJECT_ID":"2025-009Y","EPOCH":"2026-07-20T05:38:24.196128","CLASSIFICATION_TYPE":"U","MEAN_MOTION":15.40653359,"ECCENTRICITY":0.00015786,"INCLINATION":97.2049,"RA_OF_ASC_NODE":291.7151,"ARG_OF_PERICENTER":113.6557,"MEAN_ANOMALY":246.4856,"EPHEMERIS_TYPE":0,"NORAD_CAT_ID":62631,"ELEMENT_SET_NO":999,"REV_AT_EPOCH":8464,"BSTAR":0.000001710855,"MEAN_MOTION_DOT":-1e-7,"MEAN_MOTION_DDOT":0},{"OBJECT_NAME":"PELICAN-3","OBJECT_ID":"2025-188A","EPOCH":"2026-07-20T02:23:49.696800","CLASSIFICATION_TYPE":"U","MEAN_MOTION":15.41324301,"ECCENTRICITY":0.00020881,"INCLINATION":97.1977,"RA_OF_ASC_NODE":276.7657,"ARG_OF_PERICENTER":114.3182,"MEAN_ANOMALY":245.8284,"EPHEMERIS_TYPE":0,"NORAD_CAT_ID":65315,"ELEMENT_SET_NO":999,"REV_AT_EPOCH":5038,"BSTAR":0.00012021322,"MEAN_MOTION_DOT":0.00004926,"MEAN_MOTION_DDOT":0},{"OBJECT_NAME":"PELICAN-4","OBJECT_ID":"2025-188B","EPOCH":"2026-07-20T02:55:54.830496","CLASSIFICATION_TYPE":"U","MEAN_MOTION":15.40374706,"ECCENTRICITY":0.00015037,"INCLINATION":97.1983,"RA_OF_ASC_NODE":276.9324,"ARG_OF_PERICENTER":72.291,"MEAN_ANOMALY":287.8501,"EPHEMERIS_TYPE":0,"NORAD_CAT_ID":65316,"ELEMENT_SET_NO":999,"REV_AT_EPOCH":5038,"BSTAR":0.0001178933,"MEAN_MOTION_DOT":0.00004679,"MEAN_MOTION_DDOT":0},{"OBJECT_NAME":"PELICAN-5","OBJECT_ID":"2025-276B","EPOCH":"2026-07-19T17:52:03.707040","CLASSIFICATION_TYPE":"U","MEAN_MOTION":15.3290715,"ECCENTRICITY":0.00020241,"INCLINATION":97.4117,"RA_OF_ASC_NODE":275.724,"ARG_OF_PERICENTER":39.3452,"MEAN_ANOMALY":320.7937,"EPHEMERIS_TYPE":0,"NORAD_CAT_ID":66667,"ELEMENT_SET_NO":999,"REV_AT_EPOCH":3550,"BSTAR":0.00030700607,"MEAN_MOTION_DOT":0.00009682,"MEAN_MOTION_DDOT":0},{"OBJECT_NAME":"PELICAN-6","OBJECT_ID":"2025-276AP","EPOCH":"2026-07-20T03:21:40.406400","CLASSIFICATION_TYPE":"U","MEAN_MOTION":15.3162419,"ECCENTRICITY":0.00025118,"INCLINATION":97.3722,"RA_OF_ASC_NODE":276.0915,"ARG_OF_PERICENTER":40.2195,"MEAN_ANOMALY":319.9232,"EPHEMERIS_TYPE":0,"NORAD_CAT_ID":66703,"ELEMENT_SET_NO":999,"REV_AT_EPOCH":3557,"BSTAR":0.00021852744,"MEAN_MOTION_DOT":0.00006596,"MEAN_MOTION_DDOT":0},{"OBJECT_NAME":"PELICAN-7","OBJECT_ID":"2026-100AP","EPOCH":"2026-07-19T23:43:17.643360","CLASSIFICATION_TYPE":"U","MEAN_MOTION":15.23842166,"ECCENTRICITY":0.00032896,"INCLINATION":97.3811,"RA_OF_ASC_NODE":98.361,"ARG_OF_PERICENTER":80.0808,"MEAN_ANOMALY":280.0801,"EPHEMERIS_TYPE":0,"NORAD_CAT_ID":69017,"ELEMENT_SET_NO":999,"REV_AT_EPOCH":1180,"BSTAR":0.000075528587,"MEAN_MOTION_DOT":0.0000175,"MEAN_MOTION_DDOT":0},{"OBJECT_NAME":"PELICAN-9","OBJECT_ID":"2026-100AR","EPOCH":"2026-07-19T16:55:58.654272","CLASSIFICATION_TYPE":"U","MEAN_MOTION":15.22942118,"ECCENTRICITY":0.00022042,"INCLINATION":97.3534,"RA_OF_ASC_NODE":97.8912,"ARG_OF_PERICENTER":105.4648,"MEAN_ANOMALY":254.6832,"EPHEMERIS_TYPE":0,"NORAD_CAT_ID":69019,"ELEMENT_SET_NO":999,"REV_AT_EPOCH":1175,"BSTAR":0.000049018047,"MEAN_MOTION_DOT":0.00001082,"MEAN_MOTION_DDOT":0}]}
